{
  "type": "FeatureCollection",
  "features": [
    {
      "type": "Feature",
      "properties": {
        "norad_id": 29790,
        "name": "FENGYUN 1C DEB",
        "group": "fengyun-1c-debris",
        "lat": 19.76876105331674,
        "lon": -29.41137978587786,
        "alt_km": 838.6168113234444,
        "timestamp": "2025-12-06T05:40:09.512721+00:00",
        "meta_object_name": "FENGYUN 1C DEB",
        "meta_object_id": "1999-025CG",
        "meta_epoch": "2025-12-04T23:23:42.479808",
        "meta_mean_motion": 14.32250534,
        "meta_eccentricity": 0.0076165,
        "meta_inclination": 99.147,
        "meta_ra_of_asc_node": 332.5787,
        "meta_arg_of_pericenter": 199.1122,
        "meta_mean_anomaly": 160.7199,
        "meta_ephemeris_type": 0,
        "meta_classification_type": "U",
        "meta_norad_cat_id": 29790,
        "meta_element_set_no": 999,
        "meta_rev_at_epoch": 98414,
        "meta_bstar": 0.00054692,
        "meta_mean_motion_dot": 1.474e-05,
        "meta_mean_motion_ddot": 0,
        "tle_line1": "1 29790U 99025CG  25338.97479722  .00001474  00000+0  54692-3 0  9994",
        "tle_line2": "2 29790  99.1470 332.5787 0076165 199.1122 160.7199 14.32250534984142"
      },
      "geometry": {
        "type": "Point",
        "coordinates": [
          -29.41137978587786,
          19.76876105331674
        ]
      }
    },
    {
      "type": "Feature",
      "properties": {
        "norad_id": 29791,
        "name": "FENGYUN 1C DEB",
        "group": "fengyun-1c-debris",
        "lat": 62.58505041626598,
        "lon": -37.64348288296405,
        "alt_km": 664.9490261969313,
        "timestamp": "2025-12-06T05:40:09.512731+00:00",
        "meta_object_name": "FENGYUN 1C DEB",
        "meta_object_id": "1999-025CH",
        "meta_epoch": "2025-12-05T06:24:57.204000",
        "meta_mean_motion": 14.5808364,
        "meta_eccentricity": 0.00416686,
        "meta_inclination": 99.0355,
        "meta_ra_of_asc_node": 339.1704,
        "meta_arg_of_pericenter": 84.0673,
        "meta_mean_anomaly": 297.2083,
        "meta_ephemeris_type": 0,
        "meta_classification_type": "U",
        "meta_norad_cat_id": 29791,
        "meta_element_set_no": 999,
        "meta_rev_at_epoch": 98737,
        "meta_bstar": 0.0029317016,
        "meta_mean_motion_dot": 0.00013626,
        "meta_mean_motion_ddot": 0,
        "tle_line1": "1 29791U 99025CH  25339.26732875  .00013626  00000+0  29317-2 0  9996",
        "tle_line2": "2 29791  99.0355 339.1704 0041668  84.0673 297.2083 14.58083640987375"
      },
      "geometry": {
        "type": "Point",
        "coordinates": [
          -37.64348288296405,
          62.58505041626598
        ]
      }
    },
    {
      "type": "Feature",
      "properties": {
        "norad_id": 29792,
        "name": "FENGYUN 1C DEB",
        "group": "fengyun-1c-debris",
        "lat": 10.465453356984643,
        "lon": 29.288140103345295,
        "alt_km": 818.3808997772967,
        "timestamp": "2025-12-06T05:40:09.512741+00:00",
        "meta_object_name": "FENGYUN 1C DEB",
        "meta_object_id": "1999-025CJ",
        "meta_epoch": "2025-12-05T02:28:07.665600",
        "meta_mean_motion": 14.15099186,
        "meta_eccentricity": 0.00484542,
        "meta_inclination": 98.7581,
        "meta_ra_of_asc_node": 29.8074,
        "meta_arg_of_pericenter": 58.522,
        "meta_mean_anomaly": 302.0676,
        "meta_ephemeris_type": 0,
        "meta_classification_type": "U",
        "meta_norad_cat_id": 29792,
        "meta_element_set_no": 999,
        "meta_rev_at_epoch": 96831,
        "meta_bstar": 0.0025743565,
        "meta_mean_motion_dot": 5.009e-05,
        "meta_mean_motion_ddot": 0,
        "tle_line1": "1 29792U 99025CJ  25339.10286650  .00005009  00000+0  25744-2 0  9991",
        "tle_line2": "2 29792  98.7581  29.8074 0048454  58.5220 302.0676 14.15099186968311"
      },
      "geometry": {
        "type": "Point",
        "coordinates": [
          29.288140103345295,
          10.465453356984643
        ]
      }
    },
    {
      "type": "Feature",
      "properties": {
        "norad_id": 29793,
        "name": "FENGYUN 1C DEB",
        "group": "fengyun-1c-debris",
        "lat": -40.96140060104419,
        "lon": 166.88881279352285,
        "alt_km": 813.6988227960373,
        "timestamp": "2025-12-06T05:40:09.512751+00:00",
        "meta_object_name": "FENGYUN 1C DEB",
        "meta_object_id": "1999-025CK",
        "meta_epoch": "2025-12-04T11:15:54.894240",
        "meta_mean_motion": 14.01040914,
        "meta_eccentricity": 0.0144109,
        "meta_inclination": 98.3558,
        "meta_ra_of_asc_node": 157.941,
        "meta_arg_of_pericenter": 1.7097,
        "meta_mean_anomaly": 51.3801,
        "meta_ephemeris_type": 0,
        "meta_classification_type": "U",
        "meta_norad_cat_id": 29793,
        "meta_element_set_no": 999,
        "meta_rev_at_epoch": 96033,
        "meta_bstar": 0.0015286,
        "meta_mean_motion_dot": 2.469e-05,
        "meta_mean_motion_ddot": 0,
        "tle_line1": "1 29793U 99025CK  25338.46938535  .00002469  00000+0  15286-2 0  9993",
        "tle_line2": "2 29793  98.3558 157.9410 0144109   1.7097  51.3801 14.01040914960333"
      },
      "geometry": {
        "type": "Point",
        "coordinates": [
          166.88881279352285,
          -40.96140060104419
        ]
      }
    },
    {
      "type": "Feature",
      "properties": {
        "norad_id": 29794,
        "name": "FENGYUN 1C DEB",
        "group": "fengyun-1c-debris",
        "lat": 80.0283601777851,
        "lon": 84.35688252574361,
        "alt_km": 751.999648666937,
        "timestamp": "2025-12-06T05:40:09.512761+00:00",
        "meta_object_name": "FENGYUN 1C DEB",
        "meta_object_id": "1999-025CL",
        "meta_epoch": "2025-12-05T03:58:37.013952",
        "meta_mean_motion": 14.08973931,
        "meta_eccentricity": 0.01574139,
        "meta_inclination": 98.1996,
        "meta_ra_of_asc_node": 138.4762,
        "meta_arg_of_pericenter": 62.1955,
        "meta_mean_anomaly": 354.4547,
        "meta_ephemeris_type": 0,
        "meta_classification_type": "U",
        "meta_norad_cat_id": 29794,
        "meta_element_set_no": 999,
        "meta_rev_at_epoch": 96741,
        "meta_bstar": 0.00094177731,
        "meta_mean_motion_dot": 1.791e-05,
        "meta_mean_motion_ddot": 0,
        "tle_line1": "1 29794U 99025CL  25339.16570618  .00001791  00000+0  94178-3 0  9991",
        "tle_line2": "2 29794  98.1996 138.4762 0157413  62.1955 354.4547 14.08973931967419"
      },
      "geometry": {
        "type": "Point",
        "coordinates": [
          84.35688252574361,
          80.0283601777851
        ]
      }
    },
    {
      "type": "Feature",
      "properties": {
        "norad_id": 29795,
        "name": "FENGYUN 1C DEB",
        "group": "fengyun-1c-debris",
        "lat": -10.813447754199064,
        "lon": -71.83316630760436,
        "alt_km": 940.5985728189207,
        "timestamp": "2025-12-06T05:40:09.512772+00:00",
        "meta_object_name": "FENGYUN 1C DEB",
        "meta_object_id": "1999-025CM",
        "meta_epoch": "2025-12-04T08:13:39.609120",
        "meta_mean_motion": 13.92903153,
        "meta_eccentricity": 0.0111087,
        "meta_inclination": 98.87,
        "meta_ra_of_asc_node": 108.0617,
        "meta_arg_of_pericenter": 299.4355,
        "meta_mean_anomaly": 123.4514,
        "meta_ephemeris_type": 0,
        "meta_classification_type": "U",
        "meta_norad_cat_id": 29795,
        "meta_element_set_no": 999,
        "meta_rev_at_epoch": 95948,
        "meta_bstar": 0.00021925,
        "meta_mean_motion_dot": 2.56e-06,
        "meta_mean_motion_ddot": 0,
        "tle_line1": "1 29795U 99025CM  25338.34281955  .00000256  00000+0  21925-3 0  9999",
        "tle_line2": "2 29795  98.8700 108.0617 0111087 299.4355 123.4514 13.92903153959485"
      },
      "geometry": {
        "type": "Point",
        "coordinates": [
          -71.83316630760436,
          -10.813447754199064
        ]
      }
    },
    {
      "type": "Feature",
      "properties": {
        "norad_id": 29796,
        "name": "FENGYUN 1C DEB",
        "group": "fengyun-1c-debris",
        "lat": 78.00635643497728,
        "lon": -15.102731398513749,
        "alt_km": 878.0090160261461,
        "timestamp": "2025-12-06T05:40:09.512783+00:00",
        "meta_object_name": "FENGYUN 1C DEB",
        "meta_object_id": "1999-025CN",
        "meta_epoch": "2025-12-04T09:22:28.056000",
        "meta_mean_motion": 14.12306684,
        "meta_eccentricity": 0.0051649,
        "meta_inclination": 98.8657,
        "meta_ra_of_asc_node": 30.3543,
        "meta_arg_of_pericenter": 291.9009,
        "meta_mean_anomaly": 131.2733,
        "meta_ephemeris_type": 0,
        "meta_classification_type": "U",
        "meta_norad_cat_id": 29796,
        "meta_element_set_no": 999,
        "meta_rev_at_epoch": 96943,
        "meta_bstar": 0.0011514,
        "meta_mean_motion_dot": 2.102e-05,
        "meta_mean_motion_ddot": 0,
        "tle_line1": "1 29796U 99025CN  25338.39060250  .00002102  00000+0  11514-2 0  9992",
        "tle_line2": "2 29796  98.8657  30.3543 0051649 291.9009 131.2733 14.12306684969437"
      },
      "geometry": {
        "type": "Point",
        "coordinates": [
          -15.102731398513749,
          78.00635643497728
        ]
      }
    }
  ]
}